ONEWEB-0020             
1 45133U 20008C   24104.77552693  .00000613  00000+0  17206-2 0  9998
2 45133  87.8995 194.1288 0002158 108.7425 251.3937 13.10372757204305
ONEWEB-0021             
1 45134U 20008D   24104.79042534  .00000213  00000+0  57511-3 0  9999
2 45134  87.8997 194.1384 0001890 105.9127 254.2209 13.10375795204618
ONEWEB-0022             
1 45135U 20008E   24104.81161211 -.00000575  00000+0 -16822-2 0  9999
2 45135  87.9002 194.1518 0002184 106.8169 253.3198 13.10402764204310
ONEWEB-0023             
1 45136U 20008F   24104.80288645 -.00000415  00000+0 -12248-2 0  9991
2 45136  87.8996 194.1264 0002161  93.8388 266.2986 13.10370090204047
ONEWEB-0024             
1 45137U 20008G   24104.77382934  .00000675  00000+0  18969-2 0  9996
2 45137  87.8989 194.1267 0001864 106.5675 253.5657 13.10374989204206
ONEWEB-0025             
1 45138U 20008H   24104.79209707  .00000114  00000+0  28935-3 0  9998
2 45138  87.8984 194.1228 0001860  98.8754 261.2584 13.10368098204531
ONEWEB-0026             
1 45139U 20008J   24104.75569382 -.00000146  00000+0 -44720-3 0  9990
2 45139  87.9027 179.0570 0002123 104.1652 255.9712 13.11413612206982
ONEWEB-0028             
1 45140U 20008K   24104.71105416 -.00000116  00000+0 -36171-3 0  9990
2 45140  87.9026 179.1092 0001640  85.2917 274.8398 13.11420127204492
