<?xml version="1.0" encoding="UTF-8"?>
<ndm xmlns:xsi="http://www.w3.org/2001/XMLSchema-instance" xsi:noNamespaceSchemaLocation="https://sanaregistry.org/r/ndmxml_unqualified/ndmxml-2.0.0-master-2.0.xsd">
<omm id="CCSDS_OMM_VERS" version="2.0">
<header><CREATION_DATE/><ORIGINATOR/></header><body><segment><metadata><OBJECT_NAME>ONEWEB-0020</OBJECT_NAME><OBJECT_ID>2020-008C</OBJECT_ID><CENTER_NAME>EARTH</CENTER_NAME><REF_FRAME>TEME</REF_FRAME><TIME_SYSTEM>UTC</TIME_SYSTEM><MEAN_ELEMENT_THEORY>SGP4</MEAN_ELEMENT_THEORY></metadata><data><meanElements><EPOCH>2024-04-13T18:36:45.526752</EPOCH><MEAN_MOTION>13.10372757</MEAN_MOTION><ECCENTRICITY>.0002158</ECCENTRICITY><INCLINATION>87.8995</INCLINATION><RA_OF_ASC_NODE>194.1288</RA_OF_ASC_NODE><ARG_OF_PERICENTER>108.7425</ARG_OF_PERICENTER><MEAN_ANOMALY>251.3937</MEAN_ANOMALY></meanElements><tleParameters><EPHEMERIS_TYPE>0</EPHEMERIS_TYPE><CLASSIFICATION_TYPE>U</CLASSIFICATION_TYPE><NORAD_CAT_ID>45133</NORAD_CAT_ID><ELEMENT_SET_NO>999</ELEMENT_SET_NO><REV_AT_EPOCH>20430</REV_AT_EPOCH><BSTAR>.17206E-2</BSTAR><MEAN_MOTION_DOT>.613E-5</MEAN_MOTION_DOT><MEAN_MOTION_DDOT>0</MEAN_MOTION_DDOT></tleParameters></data></segment></body></omm>
<omm id="CCSDS_OMM_VERS" version="2.0">
<header><CREATION_DATE/><ORIGINATOR/></header><body><segment><metadata><OBJECT_NAME>ONEWEB-0021</OBJECT_NAME><OBJECT_ID>2020-008D</OBJECT_ID><CENTER_NAME>EARTH</CENTER_NAME><REF_FRAME>TEME</REF_FRAME><TIME_SYSTEM>UTC</TIME_SYSTEM><MEAN_ELEMENT_THEORY>SGP4</MEAN_ELEMENT_THEORY></metadata><data><meanElements><EPOCH>2024-04-13T18:58:12.749376</EPOCH><MEAN_MOTION>13.10375795</MEAN_MOTION><ECCENTRICITY>.000189</ECCENTRICITY><INCLINATION>87.8997</INCLINATION><RA_OF_ASC_NODE>194.1384</RA_OF_ASC_NODE><ARG_OF_PERICENTER>105.9127</ARG_OF_PERICENTER><MEAN_ANOMALY>254.2209</MEAN_ANOMALY></meanElements><tleParameters><EPHEMERIS_TYPE>0</EPHEMERIS_TYPE><CLASSIFICATION_TYPE>U</CLASSIFICATION_TYPE><NORAD_CAT_ID>45134</NORAD_CAT_ID><ELEMENT_SET_NO>999</ELEMENT_SET_NO><REV_AT_EPOCH>20461</REV_AT_EPOCH><BSTAR>.57511E-3</BSTAR><MEAN_MOTION_DOT>.213E-5</MEAN_MOTION_DOT><MEAN_MOTION_DDOT>0</MEAN_MOTION_DDOT></tleParameters></data></segment></body></omm>
<omm id="CCSDS_OMM_VERS" version="2.0">
<header><CREATION_DATE/><ORIGINATOR/></header><body><segment><metadata><OBJECT_NAME>ONEWEB-0022</OBJECT_NAME><OBJECT_ID>2020-008E</OBJECT_ID><CENTER_NAME>EARTH</CENTER_NAME><REF_FRAME>TEME</REF_FRAME><TIME_SYSTEM>UTC</TIME_SYSTEM><MEAN_ELEMENT_THEORY>SGP4</MEAN_ELEMENT_THEORY></metadata><data><meanElements><EPOCH>2024-04-13T19:28:43.286304</EPOCH><MEAN_MOTION>13.10402764</MEAN_MOTION><ECCENTRICITY>.0002184</ECCENTRICITY><INCLINATION>87.9002</INCLINATION><RA_OF_ASC_NODE>194.1518</RA_OF_ASC_NODE><ARG_OF_PERICENTER>106.8169</ARG_OF_PERICENTER><MEAN_ANOMALY>253.3198</MEAN_ANOMALY></meanElements><tleParameters><EPHEMERIS_TYPE>0</EPHEMERIS_TYPE><CLASSIFICATION_TYPE>U</CLASSIFICATION_TYPE><NORAD_CAT_ID>45135</NORAD_CAT_ID><ELEMENT_SET_NO>999</ELEMENT_SET_NO><REV_AT_EPOCH>20431</REV_AT_EPOCH><BSTAR>-.16822E-2</BSTAR><MEAN_MOTION_DOT>-.575E-5</MEAN_MOTION_DOT><MEAN_MOTION_DDOT>0</MEAN_MOTION_DDOT></tleParameters></data></segment></body></omm>
<omm id="CCSDS_OMM_VERS" version="2.0">
<header><CREATION_DATE/><ORIGINATOR/></header><body><segment><metadata><OBJECT_NAME>ONEWEB-0023</OBJECT_NAME><OBJECT_ID>2020-008F</OBJECT_ID><CENTER_NAME>EARTH</CENTER_NAME><REF_FRAME>TEME</REF_FRAME><TIME_SYSTEM>UTC</TIME_SYSTEM><MEAN_ELEMENT_THEORY>SGP4</MEAN_ELEMENT_THEORY></metadata><data><meanElements><EPOCH>2024-04-13T19:16:09.389280</EPOCH><MEAN_MOTION>13.10370090</MEAN_MOTION><ECCENTRICITY>.0002161</ECCENTRICITY><INCLINATION>87.8996</INCLINATION><RA_OF_ASC_NODE>194.1264</RA_OF_ASC_NODE><ARG_OF_PERICENTER>93.8388</ARG_OF_PERICENTER><MEAN_ANOMALY>266.2986</MEAN_ANOMALY></meanElements><tleParameters><EPHEMERIS_TYPE>0</EPHEMERIS_TYPE><CLASSIFICATION_TYPE>U</CLASSIFICATION_TYPE><NORAD_CAT_ID>45136</NORAD_CAT_ID><ELEMENT_SET_NO>999</ELEMENT_SET_NO><REV_AT_EPOCH>20404</REV_AT_EPOCH><BSTAR>-.12248E-2</BSTAR><MEAN_MOTION_DOT>-.415E-5</MEAN_MOTION_DOT><MEAN_MOTION_DDOT>0</MEAN_MOTION_DDOT></tleParameters></data></segment></body></omm>
<omm id="CCSDS_OMM_VERS" version="2.0">
<header><CREATION_DATE/><ORIGINATOR/></header><body><segment><metadata><OBJECT_NAME>ONEWEB-0024</OBJECT_NAME><OBJECT_ID>2020-008G</OBJECT_ID><CENTER_NAME>EARTH</CENTER_NAME><REF_FRAME>TEME</REF_FRAME><TIME_SYSTEM>UTC</TIME_SYSTEM><MEAN_ELEMENT_THEORY>SGP4</MEAN_ELEMENT_THEORY></metadata><data><meanElements><EPOCH>2024-04-13T18:34:18.854976</EPOCH><MEAN_MOTION>13.10374989</MEAN_MOTION><ECCENTRICITY>.0001864</ECCENTRICITY><INCLINATION>87.8989</INCLINATION><RA_OF_ASC_NODE>194.1267</RA_OF_ASC_NODE><ARG_OF_PERICENTER>106.5675</ARG_OF_PERICENTER><MEAN_ANOMALY>253.5657</MEAN_ANOMALY></meanElements><tleParameters><EPHEMERIS_TYPE>0</EPHEMERIS_TYPE><CLASSIFICATION_TYPE>U</CLASSIFICATION_TYPE><NORAD_CAT_ID>45137</NORAD_CAT_ID><ELEMENT_SET_NO>999</ELEMENT_SET_NO><REV_AT_EPOCH>20420</REV_AT_EPOCH><BSTAR>.18969E-2</BSTAR><MEAN_MOTION_DOT>.675E-5</MEAN_MOTION_DOT><MEAN_MOTION_DDOT>0</MEAN_MOTION_DDOT></tleParameters></data></segment></body></omm>
<omm id="CCSDS_OMM_VERS" version="2.0">
<header><CREATION_DATE/><ORIGINATOR/></header><body><segment><metadata><OBJECT_NAME>ONEWEB-0025</OBJECT_NAME><OBJECT_ID>2020-008H</OBJECT_ID><CENTER_NAME>EARTH</CENTER_NAME><REF_FRAME>TEME</REF_FRAME><TIME_SYSTEM>UTC</TIME_SYSTEM><MEAN_ELEMENT_THEORY>SGP4</MEAN_ELEMENT_THEORY></metadata><data><meanElements><EPOCH>2024-04-13T19:00:37.186848</EPOCH><MEAN_MOTION>13.10368098</MEAN_MOTION><ECCENTRICITY>.000186</ECCENTRICITY><INCLINATION>87.8984</INCLINATION><RA_OF_ASC_NODE>194.1228</RA_OF_ASC_NODE><ARG_OF_PERICENTER>98.8754</ARG_OF_PERICENTER><MEAN_ANOMALY>261.2584</MEAN_ANOMALY></meanElements><tleParameters><EPHEMERIS_TYPE>0</EPHEMERIS_TYPE><CLASSIFICATION_TYPE>U</CLASSIFICATION_TYPE><NORAD_CAT_ID>45138</NORAD_CAT_ID><ELEMENT_SET_NO>999</ELEMENT_SET_NO><REV_AT_EPOCH>20453</REV_AT_EPOCH><BSTAR>.28935E-3</BSTAR><MEAN_MOTION_DOT>.114E-5</MEAN_MOTION_DOT><MEAN_MOTION_DDOT>0</MEAN_MOTION_DDOT></tleParameters></data></segment></body></omm>
<omm id="CCSDS_OMM_VERS" version="2.0">
<header><CREATION_DATE/><ORIGINATOR/></header><body><segment><metadata><OBJECT_NAME>ONEWEB-0026</OBJECT_NAME><OBJECT_ID>2020-008J</OBJECT_ID><CENTER_NAME>EARTH</CENTER_NAME><REF_FRAME>TEME</REF_FRAME><TIME_SYSTEM>UTC</TIME_SYSTEM><MEAN_ELEMENT_THEORY>SGP4</MEAN_ELEMENT_THEORY></metadata><data><meanElements><EPOCH>2024-04-13T18:08:11.946048</EPOCH><MEAN_MOTION>13.11413612</MEAN_MOTION><ECCENTRICITY>.0002123</ECCENTRICITY><INCLINATION>87.9027</INCLINATION><RA_OF_ASC_NODE>179.0570</RA_OF_ASC_NODE><ARG_OF_PERICENTER>104.1652</ARG_OF_PERICENTER><MEAN_ANOMALY>255.9712</MEAN_ANOMALY></meanElements><tleParameters><EPHEMERIS_TYPE>0</EPHEMERIS_TYPE><CLASSIFICATION_TYPE>U</CLASSIFICATION_TYPE><NORAD_CAT_ID>45139</NORAD_CAT_ID><ELEMENT_SET_NO>999</ELEMENT_SET_NO><REV_AT_EPOCH>20698</REV_AT_EPOCH><BSTAR>-.4472E-3</BSTAR><MEAN_MOTION_DOT>-.146E-5</MEAN_MOTION_DOT><MEAN_MOTION_DDOT>0</MEAN_MOTION_DDOT></tleParameters></data></segment></body></omm>
<omm id="CCSDS_OMM_VERS" version="2.0">
<header><CREATION_DATE/><ORIGINATOR/></header><body><segment><metadata><OBJECT_NAME>ONEWEB-0028</OBJECT_NAME><OBJECT_ID>2020-008K</OBJECT_ID><CENTER_NAME>EARTH</CENTER_NAME><REF_FRAME>TEME</REF_FRAME><TIME_SYSTEM>UTC</TIME_SYSTEM><MEAN_ELEMENT_THEORY>SGP4</MEAN_ELEMENT_THEORY></metadata><data><meanElements><EPOCH>2024-04-13T17:03:55.079424</EPOCH><MEAN_MOTION>13.11420127</MEAN_MOTION><ECCENTRICITY>.000164</ECCENTRICITY><INCLINATION>87.9026</INCLINATION><RA_OF_ASC_NODE>179.1092</RA_OF_ASC_NODE><ARG_OF_PERICENTER>85.2917</ARG_OF_PERICENTER><MEAN_ANOMALY>274.8398</MEAN_ANOMALY></meanElements><tleParameters><EPHEMERIS_TYPE>0</EPHEMERIS_TYPE><CLASSIFICATION_TYPE>U</CLASSIFICATION_TYPE><NORAD_CAT_ID>45140</NORAD_CAT_ID><ELEMENT_SET_NO>999</ELEMENT_SET_NO><REV_AT_EPOCH>20449</REV_AT_EPOCH><BSTAR>-.36171E-3</BSTAR><MEAN_MOTION_DOT>-.116E-5</MEAN_MOTION_DOT><MEAN_MOTION_DDOT>0</MEAN_MOTION_DDOT></tleParameters></data></segment></body></omm>

</ndm>
